STARLINK-36419          
1 67584U 26016Z   26039.25002315 -.00057058  00000+0 -29862-3 0  9999
2 67584  97.2801  98.2487 0001654  65.7013  50.2417 15.80848861  3310
STARLINK-36560          
1 67585U 26016AA  26039.25002315 -.00087031  00000+0 -45741-3 0  9998
2 67585  97.2792  98.2519 0000981  87.8736  37.8706 15.80852742  3253
CZ-2C DEB               
1 67586U 26009C   26039.12925164  .00062039  00000+0  30808-2 0  9999
2 67586  97.2264 112.6397 0111145 139.2419 221.7195 15.12110475  3619
CZ-2C DEB               
1 67587U 26009D   26038.70444539  .00053878  00000+0  25925-2 0  9990
2 67587  97.6721 113.5437 0107672 146.2655 214.5490 15.13529194  3551
NAVSTAR 85 (USA 581)    
1 67588U 26017A   26037.57048658 -.00000033  00000+0  00000+0 0  9996
2 67588  55.0007  93.9975 0000865  80.8749 279.2003  2.00561517428992
STARLINK-36641          
1 67589U 26018A   26039.25002315 -.01753834  00000+0 -81676-2 0  9992
2 67589  97.2800 103.5113 0001623  64.1129  66.5297 15.86304005  2618
STARLINK-36376          
1 67590U 26018B   26039.25002315 -.01748939  00000+0 -80653-2 0  9998
2 67590  97.2798 103.5129 0001790  63.7262  71.0876 15.86492310  2667
STARLINK-36391          
1 67591U 26018C   26039.25002315 -.01747753  00000+0 -79702-2 0  9995
2 67591  97.2797 103.5151 0001631  72.1068  67.6393 15.86719681  2662
STARLINK-36603          
1 67592U 26018D   26039.25002315 -.01744019  00000+0 -78928-2 0  9997
2 67592  97.2798 103.5167 0001594  71.9777  71.1364 15.86867744  2621
STARLINK-36634          
1 67593U 26018E   26039.25002315 -.01741549  00000+0 -77873-2 0  9991
2 67593  97.2796 103.5188 0001542  69.8916  78.3291 15.87107711  2616
STARLINK-36638          
1 67594U 26018F   26039.25002315 -.01734826  00000+0 -76667-2 0  9992
2 67594  97.2794 103.5209 0001633  70.0829  83.0258 15.87330988  2617
STARLINK-36628          
1 67595U 26018G   26039.25002315 -.01737689  00000+0 -76179-2 0  9991
2 67595  97.2789 103.5221 0001666  67.5902  89.1517 15.87497797  2612
