CCSDS_OMM_VERS = 2.0
CREATION_DATE  = 
ORIGINATOR     = 

OBJECT_NAME    = STARLINK-36419
OBJECT_ID      = 2026-016Z
CENTER_NAME    = EARTH
REF_FRAME      = TEME
TIME_SYSTEM    = UTC
MEAN_ELEMENT_THEORY = SGP/SGP4

EPOCH          = 2026-02-08T06:00:02.000160
MEAN_MOTION    = 15.80848861
ECCENTRICITY   = .00016547
INCLINATION    = 97.2801
RA_OF_ASC_NODE = 98.2487
ARG_OF_PERICENTER = 65.7013
MEAN_ANOMALY   = 50.2417

EPHEMERIS_TYPE = 0
CLASSIFICATION_TYPE = U
NORAD_CAT_ID   = 67584
ELEMENT_SET_NO = 999
REV_AT_EPOCH   = 331
BSTAR          = -.29862141E-3
MEAN_MOTION_DOT = -.57058E-3
MEAN_MOTION_DDOT = 0

CCSDS_OMM_VERS = 2.0
CREATION_DATE  = 
ORIGINATOR     = 

OBJECT_NAME    = STARLINK-36560
OBJECT_ID      = 2026-016AA
CENTER_NAME    = EARTH
REF_FRAME      = TEME
TIME_SYSTEM    = UTC
MEAN_ELEMENT_THEORY = SGP/SGP4

EPOCH          = 2026-02-08T06:00:02.000160
MEAN_MOTION    = 15.80852742
ECCENTRICITY   = .00009813
INCLINATION    = 97.2792
RA_OF_ASC_NODE = 98.2519
ARG_OF_PERICENTER = 87.8736
MEAN_ANOMALY   = 37.8706

EPHEMERIS_TYPE = 0
CLASSIFICATION_TYPE = U
NORAD_CAT_ID   = 67585
ELEMENT_SET_NO = 999
REV_AT_EPOCH   = 325
BSTAR          = -.45740653E-3
MEAN_MOTION_DOT = -.87031E-3
MEAN_MOTION_DDOT = 0

CCSDS_OMM_VERS = 2.0
CREATION_DATE  = 
ORIGINATOR     = 

OBJECT_NAME    = CZ-2C DEB
OBJECT_ID      = 2026-009C
CENTER_NAME    = EARTH
REF_FRAME      = TEME
TIME_SYSTEM    = UTC
MEAN_ELEMENT_THEORY = SGP/SGP4

EPOCH          = 2026-02-08T03:06:07.341696
MEAN_MOTION    = 15.12110475
ECCENTRICITY   = .01111453
INCLINATION    = 97.2264
RA_OF_ASC_NODE = 112.6397
ARG_OF_PERICENTER = 139.2419
MEAN_ANOMALY   = 221.7195

EPHEMERIS_TYPE = 0
CLASSIFICATION_TYPE = U
NORAD_CAT_ID   = 67586
ELEMENT_SET_NO = 999
REV_AT_EPOCH   = 361
BSTAR          = .30808368E-2
MEAN_MOTION_DOT = .62039E-3
MEAN_MOTION_DDOT = 0

CCSDS_OMM_VERS = 2.0
CREATION_DATE  = 
ORIGINATOR     = 

OBJECT_NAME    = CZ-2C DEB
OBJECT_ID      = 2026-009D
CENTER_NAME    = EARTH
REF_FRAME      = TEME
TIME_SYSTEM    = UTC
MEAN_ELEMENT_THEORY = SGP/SGP4

EPOCH          = 2026-02-07T16:54:24.081696
MEAN_MOTION    = 15.13529194
ECCENTRICITY   = .01076723
INCLINATION    = 97.6721
RA_OF_ASC_NODE = 113.5437
ARG_OF_PERICENTER = 146.2655
MEAN_ANOMALY   = 214.5490

EPHEMERIS_TYPE = 0
CLASSIFICATION_TYPE = U
NORAD_CAT_ID   = 67587
ELEMENT_SET_NO = 999
REV_AT_EPOCH   = 355
BSTAR          = .25925206E-2
MEAN_MOTION_DOT = .53878E-3
MEAN_MOTION_DDOT = 0

CCSDS_OMM_VERS = 2.0
CREATION_DATE  = 
ORIGINATOR     = 

OBJECT_NAME    = NAVSTAR 85 (USA 581)
OBJECT_ID      = 2026-017A
CENTER_NAME    = EARTH
REF_FRAME      = TEME
TIME_SYSTEM    = UTC
MEAN_ELEMENT_THEORY = SGP/SGP4

EPOCH          = 2026-02-06T13:41:30.040512
MEAN_MOTION    = 2.00561517
ECCENTRICITY   = .00008655
INCLINATION    = 55.0007
RA_OF_ASC_NODE = 93.9975
ARG_OF_PERICENTER = 80.8749
MEAN_ANOMALY   = 279.2003

EPHEMERIS_TYPE = 0
CLASSIFICATION_TYPE = U
NORAD_CAT_ID   = 67588
ELEMENT_SET_NO = 999
REV_AT_EPOCH   = 42899
BSTAR          = 0
MEAN_MOTION_DOT = -.33E-6
MEAN_MOTION_DDOT = 0

CCSDS_OMM_VERS = 2.0
CREATION_DATE  = 
ORIGINATOR     = 

OBJECT_NAME    = STARLINK-36641
OBJECT_ID      = 2026-018A
CENTER_NAME    = EARTH
REF_FRAME      = TEME
TIME_SYSTEM    = UTC
MEAN_ELEMENT_THEORY = SGP/SGP4

EPOCH          = 2026-02-08T06:00:02.000160
MEAN_MOTION    = 15.86304005
ECCENTRICITY   = .00016232
INCLINATION    = 97.2800
RA_OF_ASC_NODE = 103.5113
ARG_OF_PERICENTER = 64.1129
MEAN_ANOMALY   = 66.5297

EPHEMERIS_TYPE = 0
CLASSIFICATION_TYPE = U
NORAD_CAT_ID   = 67589
ELEMENT_SET_NO = 999
REV_AT_EPOCH   = 261
BSTAR          = -.8167633E-2
MEAN_MOTION_DOT = -.1753834E-1
MEAN_MOTION_DDOT = 0

CCSDS_OMM_VERS = 2.0
CREATION_DATE  = 
ORIGINATOR     = 

OBJECT_NAME    = STARLINK-36376
OBJECT_ID      = 2026-018B
CENTER_NAME    = EARTH
REF_FRAME      = TEME
TIME_SYSTEM    = UTC
MEAN_ELEMENT_THEORY = SGP/SGP4

EPOCH          = 2026-02-08T06:00:02.000160
MEAN_MOTION    = 15.86492310
ECCENTRICITY   = .00017901
INCLINATION    = 97.2798
RA_OF_ASC_NODE = 103.5129
ARG_OF_PERICENTER = 63.7262
MEAN_ANOMALY   = 71.0876

EPHEMERIS_TYPE = 0
CLASSIFICATION_TYPE = U
NORAD_CAT_ID   = 67590
ELEMENT_SET_NO = 999
REV_AT_EPOCH   = 266
BSTAR          = -.80652857E-2
MEAN_MOTION_DOT = -.1748939E-1
MEAN_MOTION_DDOT = 0

CCSDS_OMM_VERS = 2.0
CREATION_DATE  = 
ORIGINATOR     = 

OBJECT_NAME    = STARLINK-36391
OBJECT_ID      = 2026-018C
CENTER_NAME    = EARTH
REF_FRAME      = TEME
TIME_SYSTEM    = UTC
MEAN_ELEMENT_THEORY = SGP/SGP4

EPOCH          = 2026-02-08T06:00:02.000160
MEAN_MOTION    = 15.86719681
ECCENTRICITY   = .00016318
INCLINATION    = 97.2797
RA_OF_ASC_NODE = 103.5151
ARG_OF_PERICENTER = 72.1068
MEAN_ANOMALY   = 67.6393

EPHEMERIS_TYPE = 0
CLASSIFICATION_TYPE = U
NORAD_CAT_ID   = 67591
ELEMENT_SET_NO = 999
REV_AT_EPOCH   = 266
BSTAR          = -.79701697E-2
MEAN_MOTION_DOT = -.1747753E-1
MEAN_MOTION_DDOT = 0

CCSDS_OMM_VERS = 2.0
CREATION_DATE  = 
ORIGINATOR     = 

OBJECT_NAME    = STARLINK-36603
OBJECT_ID      = 2026-018D
CENTER_NAME    = EARTH
REF_FRAME      = TEME
TIME_SYSTEM    = UTC
MEAN_ELEMENT_THEORY = SGP/SGP4

EPOCH          = 2026-02-08T06:00:02.000160
MEAN_MOTION    = 15.86867744
ECCENTRICITY   = .00015941
INCLINATION    = 97.2798
RA_OF_ASC_NODE = 103.5167
ARG_OF_PERICENTER = 71.9777
MEAN_ANOMALY   = 71.1364

EPHEMERIS_TYPE = 0
CLASSIFICATION_TYPE = U
NORAD_CAT_ID   = 67592
ELEMENT_SET_NO = 999
REV_AT_EPOCH   = 262
BSTAR          = -.78928039E-2
MEAN_MOTION_DOT = -.1744019E-1
MEAN_MOTION_DDOT = 0

CCSDS_OMM_VERS = 2.0
CREATION_DATE  = 
ORIGINATOR     = 

OBJECT_NAME    = STARLINK-36634
OBJECT_ID      = 2026-018E
CENTER_NAME    = EARTH
REF_FRAME      = TEME
TIME_SYSTEM    = UTC
MEAN_ELEMENT_THEORY = SGP/SGP4

EPOCH          = 2026-02-08T06:00:02.000160
MEAN_MOTION    = 15.87107711
ECCENTRICITY   = .00015427
INCLINATION    = 97.2796
RA_OF_ASC_NODE = 103.5188
ARG_OF_PERICENTER = 69.8916
MEAN_ANOMALY   = 78.3291

EPHEMERIS_TYPE = 0
CLASSIFICATION_TYPE = U
NORAD_CAT_ID   = 67593
ELEMENT_SET_NO = 999
REV_AT_EPOCH   = 261
BSTAR          = -.7787259E-2
MEAN_MOTION_DOT = -.1741549E-1
MEAN_MOTION_DDOT = 0

CCSDS_OMM_VERS = 2.0
CREATION_DATE  = 
ORIGINATOR     = 

OBJECT_NAME    = STARLINK-36638
OBJECT_ID      = 2026-018F
CENTER_NAME    = EARTH
REF_FRAME      = TEME
TIME_SYSTEM    = UTC
MEAN_ELEMENT_THEORY = SGP/SGP4

EPOCH          = 2026-02-08T06:00:02.000160
MEAN_MOTION    = 15.87330988
ECCENTRICITY   = .00016338
INCLINATION    = 97.2794
RA_OF_ASC_NODE = 103.5209
ARG_OF_PERICENTER = 70.0829
MEAN_ANOMALY   = 83.0258

EPHEMERIS_TYPE = 0
CLASSIFICATION_TYPE = U
NORAD_CAT_ID   = 67594
ELEMENT_SET_NO = 999
REV_AT_EPOCH   = 261
BSTAR          = -.76667031E-2
MEAN_MOTION_DOT = -.1734826E-1
MEAN_MOTION_DDOT = 0

CCSDS_OMM_VERS = 2.0
CREATION_DATE  = 
ORIGINATOR     = 

OBJECT_NAME    = STARLINK-36628
OBJECT_ID      = 2026-018G
CENTER_NAME    = EARTH
REF_FRAME      = TEME
TIME_SYSTEM    = UTC
MEAN_ELEMENT_THEORY = SGP/SGP4

EPOCH          = 2026-02-08T06:00:02.000160
MEAN_MOTION    = 15.87497797
ECCENTRICITY   = .00016666
INCLINATION    = 97.2789
RA_OF_ASC_NODE = 103.5221
ARG_OF_PERICENTER = 67.5902
MEAN_ANOMALY   = 89.1517

EPHEMERIS_TYPE = 0
CLASSIFICATION_TYPE = U
NORAD_CAT_ID   = 67595
ELEMENT_SET_NO = 999
REV_AT_EPOCH   = 261
BSTAR          = -.76178511E-2
MEAN_MOTION_DOT = -.1737689E-1
MEAN_MOTION_DDOT = 0

